[{"OBJECT_NAME":"NUSAT-35 (WILLIAMINA)","OBJECT_ID":"2023-001AR","EPOCH":"2026-03-09T22:28:40.425600","MEAN_MOTION":15.3245616,"ECCENTRICITY":0.00136635,"INCLINATION":97.1993,"RA_OF_ASC_NODE":124.278,"ARG_OF_PERICENTER":97.0313,"MEAN_ANOMALY":263.2484,"EPHEMERIS_TYPE":0,"CLASSIFICATION_TYPE":"U","NORAD_CAT_ID":55048,"ELEMENT_SET_NO":999,"REV_AT_EPOCH":17719,"BSTAR":0.00053479647,"MEAN_MOTION_DOT":0.0001675,"MEAN_MOTION_DDOT":0},{"OBJECT_NAME":"STARLINK-35459","OBJECT_ID":"2025-223C","EPOCH":"2026-03-09T21:23:04.083072","MEAN_MOTION":15.30176249,"ECCENTRICITY":5.218e-5,"INCLINATION":53.1596,"RA_OF_ASC_NODE":293.4445,"ARG_OF_PERICENTER":51.8078,"MEAN_ANOMALY":308.297,"EPHEMERIS_TYPE":0,"CLASSIFICATION_TYPE":"U","NORAD_CAT_ID":65856,"ELEMENT_SET_NO":999,"REV_AT_EPOCH":2423,"BSTAR":0.00074112937,"MEAN_MOTION_DOT":0.00021639,"MEAN_MOTION_DDOT":0}]
